ATLAS CENTAUR R/B       
1 06155U 72065B   26064.77458582  .00001876  00000+0  25853-3 0  9998
2 06155  35.0026 328.6975 0033998 335.9476  23.9637 14.77675221840682
SL-8 R/B                
1 08459U 75112B   26064.32952162  .00000334  00000+0  11859-3 0  9996
2 08459  74.0619  26.9320 0014529 122.0340 238.2228 14.38200686631241
SL-3 R/B                
1 10114U 77057B   26064.70454228  .00016212  00000+0  34117-3 0  9993
2 10114  97.5765 236.4504 0006271 301.8181  58.2456 15.45359745667715
SEASAT 1                
1 10967U 78064A   26064.69164004  .00000311  00000+0  12535-3 0  9999
2 10967 108.0118 117.1103 0002223 287.0341  73.0561 14.46156505505933
SL-14 R/B               
1 11267U 79011B   26064.55628380  .00000792  00000+0  75615-4 0  9995
2 11267  82.5213 100.4941 0017573  73.2348 287.0798 14.91902860528162
SL-8 R/B                
1 11574U 79089B   26064.51458021  .00000375  00000+0  12143-3 0  9993
2 11574  74.0672  98.7734 0017140 271.8665  88.0529 14.42347568435505
SL-14 R/B               
1 11672U 80005B   26064.70081557  .00000788  00000+0  77161-4 0  9999
2 11672  82.5152 311.0198 0015837 171.2288 188.9211 14.90925161475899
SL-8 R/B                
1 12139U 81003B   26064.69574547  .00021368  00000+0  55036-3 0  9994
2 12139  82.9384 293.7177 0262609 192.5103 166.9532 15.10785815314072
SL-3 R/B                
1 12465U 81046B   26064.76102645  .00014614  00000+0  34103-3 0  9995
2 12465  81.2301 294.4623 0019904  35.6397 324.6170 15.41873551437828
SL-3 R/B                
1 12904U 81103B   26064.69445646  .00008141  00000+0  36194-3 0  9990
2 12904  81.1582 218.1183 0012472 300.9613  59.0392 15.21318339972625
SL-3 R/B                
1 13068U 82013B   26064.70420309  .00006448  00000+0  27971-3 0  9995
2 13068  81.1766 165.4405 0022409 190.7056 169.3703 15.21966789403740
SL-3 R/B                
1 13154U 82039B   26064.74733360  .00003970  00000+0  24015-3 0  9990
2 13154  81.1583 220.5069 0029824 337.2966  22.6937 15.10053601381044
